start=new Date('2022-11-18T00:00:00.000Z').valueOf();
sats=[{"INCLINATION":"53.0562","MEAN_MOTION_DDOT":"0.0000000000000","MEAN_ELEMENT_THEORY":"SGP4","RA_OF_ASC_NODE":"354.0652","PERIAPSIS":"546.018","RCS_SIZE":"LARGE","COUNTRY_CODE":"US","SEMIMAJOR_AXIS":"6925.342","MEAN_MOTION_DOT":"0.00001024","TIME_SYSTEM":"UTC","DECAY_DATE":null,"LAUNCH_DATE":"2020-09-03","CENTER_NAME":"EARTH","OBJECT_TYPE":"PAYLOAD","APOAPSIS":"548.397","GP_ID":"218092293","REF_FRAME":"TEME","EPOCH":"2022-11-17T19:00:07.015104","FILE":"3661914","MEAN_ANOMALY":"300.0530","ECCENTRICITY":"0.00017180","EPHEMERIS_TYPE":"0","ELEMENT_SET_NO":"999","TLE_LINE1":"1 46363U 20062AQ  22321.79174786  .00001024  00000-0  87652-4 0  9990","CLASSIFICATION_TYPE":"U","REV_AT_EPOCH":"12288","TLE_LINE2":"2 46363  53.0562 354.0652 0001718  60.0630 300.0530 15.06402008122880","PERIOD":"95.592","ARG_OF_PERICENTER":"60.0630","OBJECT_ID":"2020-062AQ","SITE":"AFETR","OBJECT_NAME":"STARLINK-1739","BSTAR":"0.00008765200000","MEAN_MOTION":"15.06402008","NORAD_CAT_ID":"46363"},{"REV_AT_EPOCH":"12328","TLE_LINE2":"2 46364  53.0566 336.0597 0001436  74.8683 285.2464 15.06402826123284","SITE":"AFETR","OBJECT_NAME":"STARLINK-1763","ARG_OF_PERICENTER":"74.8683","OBJECT_ID":"2020-062AR","PERIOD":"95.592","NORAD_CAT_ID":"46364","MEAN_MOTION":"15.06402826","BSTAR":"0.00015159000000","RA_OF_ASC_NODE":"336.0597","MEAN_ELEMENT_THEORY":"SGP4","INCLINATION":"53.0566","MEAN_MOTION_DDOT":"0.0000000000000","TIME_SYSTEM":"UTC","DECAY_DATE":null,"LAUNCH_DATE":"2020-09-03","CENTER_NAME":"EARTH","COUNTRY_CODE":"US","SEMIMAJOR_AXIS":"6925.340","MEAN_MOTION_DOT":"0.00001977","RCS_SIZE":"LARGE","PERIAPSIS":"546.210","FILE":"3661773","EPOCH":"2022-11-17T11:06:31.547232","REF_FRAME":"TEME","OBJECT_TYPE":"PAYLOAD","GP_ID":"218070282","APOAPSIS":"548.199","EPHEMERIS_TYPE":"0","TLE_LINE1":"1 46364U 20062AR  22321.46286513  .00001977  00000-0  15159-3 0  9996","CLASSIFICATION_TYPE":"U","ELEMENT_SET_NO":"999","ECCENTRICITY":"0.00014360","MEAN_ANOMALY":"285.2464"},{"MEAN_ANOMALY":"306.5815","ECCENTRICITY":"0.00016360","EPHEMERIS_TYPE":"0","ELEMENT_SET_NO":"999","TLE_LINE1":"1 46365U 20062AS  22321.37249095  .00000157  00000-0  29454-4 0  9994","CLASSIFICATION_TYPE":"U","EPOCH":"2022-11-17T08:56:23.218080","FILE":"3661693","OBJECT_TYPE":"PAYLOAD","APOAPSIS":"548.356","GP_ID":"218061618","REF_FRAME":"TEME","SEMIMAJOR_AXIS":"6925.358","COUNTRY_CODE":"US","MEAN_MOTION_DOT":"0.00000157","DECAY_DATE":null,"TIME_SYSTEM":"UTC","LAUNCH_DATE":"2020-09-03","CENTER_NAME":"EARTH","PERIAPSIS":"546.090","RCS_SIZE":"LARGE","MEAN_ELEMENT_THEORY":"SGP4","RA_OF_ASC_NODE":"355.9680","INCLINATION":"53.0565","MEAN_MOTION_DDOT":"0.0000000000000","MEAN_MOTION":"15.06396938","NORAD_CAT_ID":"46365","BSTAR":"0.00002945400000","ARG_OF_PERICENTER":"53.5324","OBJECT_ID":"2020-062AS","SITE":"AFETR","OBJECT_NAME":"STARLINK-1550","PERIOD":"95.592","REV_AT_EPOCH":"12281","TLE_LINE2":"2 46365  53.0565 355.9680 0001636  53.5324 306.5815 15.06396938122816"},{"OBJECT_NAME":"STARLINK-1651","SITE":"AFETR","OBJECT_ID":"2020-062AT","ARG_OF_PERICENTER":"65.1286","PERIOD":"95.592","NORAD_CAT_ID":"46366","MEAN_MOTION":"15.06397618","BSTAR":"0.00012852000000","TLE_LINE2":"2 46366  53.0560 356.0251 0001558  65.1286 294.9865 15.06397618122997","REV_AT_EPOCH":"12299","FILE":"3661741","EPOCH":"2022-11-17T08:40:28.562016","REF_FRAME":"TEME","GP_ID":"218069579","APOAPSIS":"548.300","OBJECT_TYPE":"PAYLOAD","ELEMENT_SET_NO":"999","TLE_LINE1":"1 46366U 20062AT  22321.36144169  .00001633  00000-0  12852-3 0  9993","CLASSIFICATION_TYPE":"U","EPHEMERIS_TYPE":"0","MEAN_ANOMALY":"294.9865","ECCENTRICITY":"0.00015580","RA_OF_ASC_NODE":"356.0251","MEAN_ELEMENT_THEORY":"SGP4","MEAN_MOTION_DDOT":"0.0000000000000","INCLINATION":"53.0560","DECAY_DATE":null,"LAUNCH_DATE":"2020-09-03","TIME_SYSTEM":"UTC","CENTER_NAME":"EARTH","MEAN_MOTION_DOT":"0.00001633","SEMIMAJOR_AXIS":"6925.356","COUNTRY_CODE":"US","RCS_SIZE":"LARGE","PERIAPSIS":"546.142"},{"NORAD_CAT_ID":"46368","MEAN_MOTION":"15.06407691","BSTAR":"0.00027802000000","OBJECT_NAME":"STARLINK-1658","SITE":"AFETR","OBJECT_ID":"2020-062AV","ARG_OF_PERICENTER":"65.5803","PERIOD":"95.592","TLE_LINE2":"2 46368  53.0552  19.8110 0001510  65.5803 294.5344 15.06407691122514","REV_AT_EPOCH":"12251","ELEMENT_SET_NO":"999","TLE_LINE1":"1 46368U 20062AV  22321.62542081  .00003863  00000-0  27802-3 0  9997","CLASSIFICATION_TYPE":"U","EPHEMERIS_TYPE":"0","MEAN_ANOMALY":"294.5344","ECCENTRICITY":"0.00015100","FILE":"3661914","EPOCH":"2022-11-17T15:00:36.357984","REF_FRAME":"TEME","APOAPSIS":"548.236","GP_ID":"218092794","OBJECT_TYPE":"PAYLOAD","TIME_SYSTEM":"UTC","DECAY_DATE":null,"LAUNCH_DATE":"2020-09-03","CENTER_NAME":"EARTH","MEAN_MOTION_DOT":"0.00003863","COUNTRY_CODE":"US","SEMIMAJOR_AXIS":"6925.325","RCS_SIZE":"LARGE","PERIAPSIS":"546.144","RA_OF_ASC_NODE":"19.8110","MEAN_ELEMENT_THEORY":"SGP4","MEAN_MOTION_DDOT":"0.0000000000000","INCLINATION":"53.0552"},{"REV_AT_EPOCH":"12251","TLE_LINE2":"2 46370  53.0557  19.6912 0001603  59.5953 300.5194 15.06396837122512","OBJECT_ID":"2020-062AX","ARG_OF_PERICENTER":"59.5953","OBJECT_NAME":"STARLINK-1670","SITE":"AFETR","PERIOD":"95.592","MEAN_MOTION":"15.06396837","NORAD_CAT_ID":"46370","BSTAR":"0.00003956700000","MEAN_ELEMENT_THEORY":"SGP4","RA_OF_ASC_NODE":"19.6912","MEAN_MOTION_DDOT":"0.0000000000000","INCLINATION":"53.0557","MEAN_MOTION_DOT":"0.00000308","COUNTRY_CODE":"US","SEMIMAJOR_AXIS":"6925.358","DECAY_DATE":null,"TIME_SYSTEM":"UTC","LAUNCH_DATE":"2020-09-03","CENTER_NAME":"EARTH","PERIAPSIS":"546.113","RCS_SIZE":"LARGE","EPOCH":"2022-11-17T15:44:25.708704","FILE":"3661914","APOAPSIS":"548.333","GP_ID":"218093044","OBJECT_TYPE":"PAYLOAD","REF_FRAME":"TEME","MEAN_ANOMALY":"300.5194","ECCENTRICITY":"0.00016030","TLE_LINE1":"1 46370U 20062AX  22321.65585311  .00000308  00000-0  39567-4 0  9999","CLASSIFICATION_TYPE":"U","ELEMENT_SET_NO":"999","EPHEMERIS_TYPE":"0"},{"PERIAPSIS":"546.311","RCS_SIZE":"LARGE","MEAN_MOTION_DOT":"0.00001009","COUNTRY_CODE":"US","SEMIMAJOR_AXIS":"6925.372","TIME_SYSTEM":"UTC","DECAY_DATE":null,"LAUNCH_DATE":"2020-09-03","CENTER_NAME":"EARTH","MEAN_MOTION_DDOT":"0.0000000000000","INCLINATION":"53.0560","MEAN_ELEMENT_THEORY":"SGP4","RA_OF_ASC_NODE":"20.3364","MEAN_ANOMALY":"284.3443","ECCENTRICITY":"0.00013370","TLE_LINE1":"1 46371U 20062AY  22321.51579532  .00001009  00000-0  86620-4 0  9994","ELEMENT_SET_NO":"999","CLASSIFICATION_TYPE":"U","EPHEMERIS_TYPE":"0","GP_ID":"218062117","APOAPSIS":"548.163","OBJECT_TYPE":"PAYLOAD","REF_FRAME":"TEME","EPOCH":"2022-11-17T12:22:44.715648","FILE":"3661693","TLE_LINE2":"2 46371  53.0560  20.3364 0001337  75.7694 284.3443 15.06392370122494","REV_AT_EPOCH":"12249","BSTAR":"0.00008662000000","MEAN_MOTION":"15.06392370","NORAD_CAT_ID":"46371","PERIOD":"95.593","OBJECT_ID":"2020-062AY","ARG_OF_PERICENTER":"75.7694","OBJECT_NAME":"STARLINK-1688","SITE":"AFETR"},{"GP_ID":"218062366","APOAPSIS":"548.150","OBJECT_TYPE":"PAYLOAD","REF_FRAME":"TEME","EPOCH":"2022-11-17T09:24:56.498976","FILE":"3661693","MEAN_ANOMALY":"288.3441","ECCENTRICITY":"0.00013090","TLE_LINE1":"1 46372U 20062AZ  22321.39232059 -.00000668  00000-0 -25964-4 0  9997","CLASSIFICATION_TYPE":"U","ELEMENT_SET_NO":"999","EPHEMERIS_TYPE":"0","MEAN_MOTION_DDOT":"0.0000000000000","INCLINATION":"53.0566","MEAN_ELEMENT_THEORY":"SGP4","RA_OF_ASC_NODE":"40.8724","PERIAPSIS":"546.337","RCS_SIZE":"LARGE","MEAN_MOTION_DOT":"-0.00000668","COUNTRY_CODE":"US","SEMIMAJOR_AXIS":"6925.378","LAUNCH_DATE":"2020-09-03","DECAY_DATE":null,"CENTER_NAME":"EARTH","TIME_SYSTEM":"UTC","PERIOD":"95.593","OBJECT_ID":"2020-062AZ","ARG_OF_PERICENTER":"71.7690","OBJECT_NAME":"STARLINK-1689","SITE":"AFETR","BSTAR":"-0.00002596400000","MEAN_MOTION":"15.06390302","NORAD_CAT_ID":"46372","TLE_LINE2":"2 46372  53.0566  40.8724 0001309  71.7690 288.3441 15.06390302122191","REV_AT_EPOCH":"12219"},{"PERIOD":"95.592","SITE":"AFETR","OBJECT_NAME":"STARLINK-1711","ARG_OF_PERICENTER":"67.3426","OBJECT_ID":"2020-062BB","BSTAR":"0.00010396000000","NORAD_CAT_ID":"46374","MEAN_MOTION":"15.06404242","REV_AT_EPOCH":"12322","TLE_LINE2":"2 46374  53.0543 329.3263 0001665  67.3426 292.7739 15.06404242123227","REF_FRAME":"TEME","OBJECT_TYPE":"PAYLOAD","GP_ID":"218092294","APOAPSIS":"548.354","FILE":"3661914","EPOCH":"2022-11-17T17:42:32.025024","EPHEMERIS_TYPE":"0","TLE_LINE1":"1 46374U 20062BB  22321.73787066  .00001267  00000-0  10396-3 0  9996","CLASSIFICATION_TYPE":"U","ELEMENT_SET_NO":"999","ECCENTRICITY":"0.00016650","MEAN_ANOMALY":"292.7739","INCLINATION":"53.0543","MEAN_MOTION_DDOT":"0.0000000000000","RA_OF_ASC_NODE":"329.3263","MEAN_ELEMENT_THEORY":"SGP4","RCS_SIZE":"LARGE","PERIAPSIS":"546.047","LAUNCH_DATE":"2020-09-03","DECAY_DATE":null,"CENTER_NAME":"EARTH","TIME_SYSTEM":"UTC","SEMIMAJOR_AXIS":"6925.336","COUNTRY_CODE":"US","MEAN_MOTION_DOT":"0.00001267"},{"EPOCH":"2022-11-17T10:05:23.976096","FILE":"3661914","OBJECT_TYPE":"PAYLOAD","GP_ID":"218092544","APOAPSIS":"548.431","REF_FRAME":"TEME","ECCENTRICITY":"0.00017750","MEAN_ANOMALY":"299.3735","EPHEMERIS_TYPE":"0","ELEMENT_SET_NO":"999","TLE_LINE1":"1 46375U 20062BC  22321.42041639  .00001563  00000-0  12383-3 0  9999","CLASSIFICATION_TYPE":"U","MEAN_ELEMENT_THEORY":"SGP4","RA_OF_ASC_NODE":"355.7406","INCLINATION":"53.0565","MEAN_MOTION_DDOT":"0.0000000000000","COUNTRY_CODE":"US","SEMIMAJOR_AXIS":"6925.337","MEAN_MOTION_DOT":"0.00001563","CENTER_NAME":"EARTH","DECAY_DATE":null,"LAUNCH_DATE":"2020-09-03","TIME_SYSTEM":"UTC","PERIAPSIS":"545.973","RCS_SIZE":"LARGE","ARG_OF_PERICENTER":"60.7432","OBJECT_ID":"2020-062BC","SITE":"AFETR","OBJECT_NAME":"STARLINK-1724","PERIOD":"95.592","MEAN_MOTION":"15.06403706","NORAD_CAT_ID":"46375","BSTAR":"0.00012383000000","REV_AT_EPOCH":"12282","TLE_LINE2":"2 46375  53.0565 355.7406 0001775  60.7432 299.3735 15.06403706122828"}];
